METEOSAT-11 (MSG-4)     
1 40732U 15034A   26062.65970112  .00000049  00000+0  00000+0 0  9997
2 40732   2.9356  71.6854 0001803 270.6542  65.9819  1.00265866  6156
ELEKTRO-L 2             
1 41105U 15074A   26062.86880331 -.00000128  00000+0  00000+0 0  9991
2 41105   6.4296  71.8188 0003468 237.1165 150.9510  1.00270829 37458
INSAT-3DR               
1 41752U 16054A   26062.76765943 -.00000091  00000+0  00000+0 0  9997
2 41752   0.0454  96.9374 0013302 184.7888 230.1313  1.00272340 34767
HIMAWARI-9              
1 41836U 16064A   26062.71989259 -.00000289  00000+0  00000+0 0  9993
2 41836   0.0152 183.4454 0001154 181.7639 196.2020  1.00272468 34150
GOES 16                 
1 41866U 16071A   26062.56575395 -.00000105  00000+0  00000+0 0  9996
2 41866   0.1452  90.1946 0002571 216.7975 313.3003  1.00271662 34049
FENGYUN 4A              
1 41882U 16077A   26062.82494976 -.00000370  00000+0  00000+0 0  9998
2 41882   2.0544  81.4190 0007492 135.9080   4.7833  1.00279555 33871
CYGFM05                 
1 41884U 16078A   26062.78256755  .00030798  00000+0  49757-3 0  9999
2 41884  34.9566 236.1268 0006966 234.9171 125.0899 15.51820823512346
CYGFM04                 
1 41885U 16078B   26062.78056127  .00036077  00000+0  51484-3 0  9997
2 41885  34.9325 208.4221 0006128 268.4132  91.5890 15.55205696512549
CYGFM02                 
1 41886U 16078C   26062.75441081  .00084247  00000+0  11032-2 0  9998
2 41886  34.9412 205.6235 0007112 269.5221  90.4689 15.57324186512683
CYGFM01                 
1 41887U 16078D   26062.81142281  .00032350  00000+0  51433-3 0  9994
2 41887  34.9394 237.7560 0006622 227.0113 133.0055 15.52259596512299
CYGFM08                 
1 41888U 16078E   26062.73288449  .00034607  00000+0  52116-3 0  9999
2 41888  34.9430 220.2120 0008144 251.3542 108.6297 15.53730480512526
CYGFM07                 
1 41890U 16078G   26062.70210208  .00035811  00000+0  52602-3 0  9995
2 41890  34.9450 208.9003 0006666 271.1192  88.8768 15.54418491512542
CYGFM03                 
1 41891U 16078H   26062.73744027  .00034759  00000+0  51041-3 0  9996
2 41891  34.9404 210.6464 0005941 256.6776 103.3285 15.54436642512527
FENGYUN 3D              
1 43010U 17072A   26062.85711653 -.00000258  00000+0 -10025-3 0  9994
2 43010  99.0014  35.4371 0001850  25.4227 334.7039 14.19711597430047
NOAA 20 (JPSS-1)        
1 43013U 17073A   26062.83715056  .00000099  00000+0  68042-4 0  9991
2 43013  98.7686   3.2827 0000931 145.4930 214.6307 14.19534278429527
GOES 17                 
1 43226U 18022A   26062.64011435 -.00000196  00000+0  00000+0 0  9995
2 43226   0.6662  87.5708 0002289 220.2416 354.5211  1.00270410 29368
FENGYUN 2H              
1 43491U 18050A   26062.81613528 -.00000139  00000+0  00000+0 0  9997
2 43491   2.7591  80.3620 0001950 174.0578 280.0246  1.00272657 28386
